SKYNET 4C               
1 20776U 90079A   26087.83666557  .00000113  00000+0  00000+0 0  9999
2 20776  13.3658 350.3637 0003469   5.3383 165.0871  1.00272795130084
